YUXING-3 06             
1 68199U 26052B   26086.74808780  .00005078  00000+0  31527-3 0  9992
2 68199  97.5374 162.8151 0011999 223.4844 136.5440 15.10075944  1752
2026-052C               
1 68200U 26052C   26086.61455828  .00004483  00000+0  27788-3 0  9995
2 68200  97.5369 162.6872 0011732 226.5312 133.4943 15.10201672  1726
2026-052D               
1 68201U 26052D   26086.61330315  .00006533  00000+0  40098-3 0  9996
2 68201  97.5370 162.6853 0010852 223.0232 137.0150 15.10399149  1731
2026-052E               
1 68202U 26052E   26086.61328282  .00006563  00000+0  40283-3 0  9996
2 68202  97.5370 162.6873 0010752 226.9495 133.0835 15.10399697  1730
2026-052F               
1 68203U 26052F   26086.61138003  .00006672  00000+0  40667-3 0  9994
2 68203  97.5366 162.6947 0010023 218.8104 141.2407 15.10654199  1733
2026-052G               
1 68204U 26052G   26086.61101087  .00007010  00000+0  42650-3 0  9998
2 68204  97.5377 162.6891 0009562 221.8179 138.2321 15.10702609  1737
KZ-11 R/B               
1 68205U 26052H   26086.60879515  .00026427  19011-5  39603-3 0  9991
2 68205  97.3417 162.0602 0546473 335.9480  21.7050 14.67157879  1687
2026-052J               
1 68206U 26052J   26086.60616661  .00053921  22459-5  79095-3 0  9991
2 68206  97.3419 162.0631 0544177 336.0101  21.6589 14.67850977  1688
STARLINK-36986          
1 68207U 26053A   26086.50002315  .00097611  00000+0  50572-3 0  9992
2 68207  97.2827 321.6074 0001094 101.7595 137.9823 15.80769749  2871
STARLINK-37009          
1 68208U 26053B   26086.50002315  .00206162  00000+0  10588-2 0  9998
2 68208  97.2817 321.6087 0002187  90.5604 153.4660 15.80669831  2878
STARLINK-36948          
1 68209U 26053C   26086.50002315 -.00022073  00000+0 -11469-3 0  9998
2 68209  97.2816 321.6105 0001322  96.1633 152.1016 15.80833077  2767
STARLINK-37119          
1 68210U 26053D   26086.50002315 -.00171824  00000+0 -90924-3 0  9992
2 68210  97.2814 321.6123 0001593  75.7987 176.6977 15.80929640  2873
STARLINK-37120          
1 68211U 26053E   26086.50002315 -.00349766  00000+0 -18812-2 0  9990
2 68211  97.2806 321.6130 0001749  74.7301 181.9836 15.81022754  2857
STARLINK-37117          
1 68212U 26053F   26086.50002315 -.00570052  00000+0 -31181-2 0  9999
2 68212  97.2814 321.6156 0001428  94.4758 166.4155 15.81200703  2870
STARLINK-37116          
1 68213U 26053G   26086.50002315 -.00903511  00000+0 -50711-2 0  9990
2 68213  97.2806 321.6170 0001841  86.6148 178.3973 15.81465746  2873
STARLINK-35854          
1 68214U 26053H   26086.50002315 -.01120669  00000+0 -62691-2 0  9997
2 68214  97.2806 321.6188 0001636  90.1276 179.0222 15.81662931  2631
STARLINK-36272          
1 68215U 26053J   26086.50002315 -.01387773  00000+0 -78726-2 0  9995
2 68215  97.2799 321.6206 0001608  94.5123 178.6942 15.81955192  2764
STARLINK-37014          
1 68216U 26053K   26086.50002315 -.01569413  00000+0 -87744-2 0  9999
2 68216  97.2799 321.6220 0001876  90.8181 186.5009 15.82140398  2870
STARLINK-37011          
1 68217U 26053L   26086.50002315 -.01750978  00000+0 -98315-2 0  9994
2 68217  97.2800 321.6240 0001625  92.2730 189.0580 15.82407418  2875
STARLINK-37108          
1 68218U 26053M   26086.50002315 -.01868765  00000+0 -10199-1 0  9992
2 68218  97.2800 321.6258 0001714 106.5737 178.6584 15.82691356  2874
STARLINK-37106          
1 68219U 26053N   26086.50002315 -.01879443  00000+0 -10168-1 0  9994
2 68219  97.2799 321.6284 0001416  92.2628 196.9250 15.82897651  2879
STARLINK-37030          
1 68220U 26053P   26086.50002315 -.01778176  00000+0 -96685-2 0  9996
2 68220  97.2790 321.6310 0001492  90.9532 206.2397 15.83143139  2878
STARLINK-37012          
1 68221U 26053Q   26086.50002315 -.01900788  00000+0 -10228-1 0  9991
2 68221  97.2792 321.6290 0001707  93.6028 199.5798 15.83042746  2878
STARLINK-37110          
1 68222U 26053R   26086.50002315 -.01933658  00000+0 -10275-1 0  9996
2 68222  97.2787 321.6314 0001564  95.8430 205.2774 15.83362766  2878
STARLINK-37025          
1 68223U 26053S   26086.50002315 -.01942944  00000+0 -10263-1 0  9992
2 68223  97.2780 321.6324 0001385  91.0827 214.0123 15.83505223  2875
STARLINK-36977          
1 68224U 26053T   26086.50002315 -.01934926  00000+0 -10129-1 0  9995
2 68224  97.2777 321.6339 0001451  88.9641 219.9851 15.83680774  2766
STARLINK-36960          
1 68225U 26053U   26086.50002315 -.01928432  00000+0 -10006-1 0  9995
2 68225  97.2777 321.6355 0001268  95.2145 217.5528 15.83859839  2856
STARLINK-37038          
1 68226U 26053V   26086.50002315 -.01958147  00000+0 -10035-1 0  9994
2 68226  97.2775 321.6390 0001478  99.1934 221.3606 15.84163121  2859
STARLINK-37083          
1 68227U 26053W   26086.50002315 -.01937957  00000+0 -99853-2 0  9997
2 68227  97.2779 321.6378 0001593 102.8811 213.7640 15.84016348  2877
STARLINK-37050          
1 68228U 26053X   26086.50002315 -.01938446  00000+0 -98689-2 0  9998
2 68228  97.2777 321.6413 0001415  95.1027 229.3922 15.84269552  2853
STARLINK-37081          
1 68229U 26053Y   26086.50002315 -.01942701  00000+0 -96896-2 0  9996
2 68229  97.2768 321.6457 0001252  90.1170 245.8749 15.84705686  2870
STARLINK-37100          
1 68230U 26053Z   26086.50002315 -.01965662  00000+0 -99389-2 0  9999
2 68230  97.2770 321.6426 0001284  84.6240 243.6323 15.84458147  2873
STARLINK-37104          
1 68231U 26053AA  26086.50002315 -.01943299  00000+0 -97545-2 0  9994
2 68231  97.2770 321.6443 0001531 100.3373 231.8079 15.84570746  2878
STARLINK-37027          
1 68232U 26054A   26086.50002315  .00057459  00000+0  29309-3 0  9991
2 68232  53.1589 223.4166 0000943 123.7856 122.3542 15.80844921  2773
STARLINK-37132          
1 68233U 26054B   26086.50002315  .00064728  00000+0  32969-3 0  9995
2 68233  53.1590 223.4075 0001069  41.7708 208.6562 15.80829121  2854
STARLINK-37101          
1 68234U 26054C   26086.50002315  .00024174  00000+0  12568-3 0  9990
2 68234  53.1590 223.3989 0000837  74.3598 180.3120 15.80872011  2772
STARLINK-36963          
1 68235U 26054D   26086.50002315  .00047844  00000+0  24502-3 0  9991
2 68235  53.1589 223.3812 0000931  62.3297 200.9112 15.80835685  2770
STARLINK-37127          
1 68236U 26054E   26086.50002315 -.01956314  00000+0 -13040-1 0  9999
2 68236  53.1594 223.3974 0000905  81.8150 173.4241 15.77966965  2859
STARLINK-37095          
1 68237U 26054F   26086.50002315 -.01593188  00000+0 -90539-2 0  9995
2 68237  53.1590 223.3724 0000966  83.6731 183.7702 15.81279568  2779
STARLINK-37097          
1 68238U 26054G   26086.50002315  .00020231  00000+0  10585-3 0  9991
2 68238  53.1588 223.3633 0000738  66.7217 205.0480 15.80862459  2771
STARLINK-37096          
1 68239U 26054H   26086.50002315 -.00012930  00000+0 -62067-4 0  9994
2 68239  53.1589 223.3459 0000779  74.3052 206.0100 15.80873489  2771
STARLINK-37092          
1 68240U 26054J   26086.50002315  .00034956  00000+0  18004-3 0  9997
2 68240  53.1591 223.3548 0000830  94.3651 181.6704 15.80858877  2772
STARLINK-37094          
1 68241U 26054K   26086.50002315  .00032574  00000+0  16785-3 0  9996
2 68241  53.1593 223.3370 0001048  82.3976 202.1673 15.80885912  2760
STARLINK-36356          
1 68242U 26054L   26086.50002315  .00074998  00000+0  38044-3 0  9995
2 68242  53.1594 223.3279 0000900  90.0674 198.7775 15.80860290  2818
STARLINK-36345          
1 68243U 26054M   26086.50002315 -.01006958  00000+0 -56386-2 0  9998
2 68243  53.1594 223.3193 0000816  99.6436 193.4356 15.81212288  2817
STARLINK-36310          
1 68244U 26054N   26086.50002315  .00010284  00000+0  55520-4 0  9994
2 68244  53.1595 223.3015 0001351  93.9067 207.7396 15.80898714  2810
STARLINK-36247          
1 68245U 26054P   26086.50002315 -.00028447  00000+0 -14105-3 0  9990
2 68245  53.1595 223.3107 0001124 119.1317 178.2760 15.80874238  2812
STARLINK-37043          
1 68246U 26054Q   26086.50002315 -.00023870  00000+0 -11761-3 0  9991
2 68246  53.1596 223.2929 0001027  76.3298 229.5957 15.80894335  2772
STARLINK-37044          
1 68247U 26054R   26086.50002315 -.00073514  00000+0 -37113-3 0  9991
2 68247  53.1596 223.2838 0001133  78.1149 232.0838 15.80927959  2771
STARLINK-36997          
1 68248U 26054S   26086.50002315 -.00051685  00000+0 -25942-3 0  9994
2 68248  53.1596 223.2751 0001482  82.5323 231.9517 15.80910346  2770
STARLINK-37141          
1 68249U 26054T   26086.50002315 -.00043077  00000+0 -21568-3 0  9991
2 68249  53.1597 223.2666 0000545  59.0247 259.7301 15.80885862  2852
STARLINK-37087          
1 68250U 26054U   26086.50002315 -.00109124  00000+0 -55493-3 0  9993
2 68250  53.1598 223.2578 0001062 102.7215 220.3053 15.80927484  2779
STARLINK-36274          
1 68251U 26054V   26086.50002315 -.00046973  00000+0 -23545-3 0  9999
2 68251  53.1597 223.2487 0000997  90.4125 236.8911 15.80899348  2814
STARLINK-37085          
1 68252U 26054W   26086.50002315 -.00081569  00000+0 -41264-3 0  9998
2 68252  53.1597 223.2398 0001414  93.4613 238.0942 15.80923468  2770
STARLINK-37086          
1 68253U 26054X   26086.50002315 -.00102718  00000+0 -52165-3 0  9991
2 68253  53.1596 223.2314 0001059  98.4225 237.3997 15.80931739  2779
STARLINK-37084          
1 68254U 26054Y   26086.50002315 -.00107054  00000+0 -54396-3 0  9998
2 68254  53.1597 223.2137 0001273  82.4082 261.9600 15.80936476  2773
STARLINK-37075          
1 68255U 26054Z   26086.50002315 -.00073098  00000+0 -36898-3 0  9996
2 68255  53.1596 223.2225 0001015 102.9435 237.1462 15.80929524  2772
STARLINK-36333          
1 68256U 26054AA  26086.50002315 -.00075852  00000+0 -38351-3 0  9993
2 68256  53.1596 223.2052 0000849  51.8855 296.7646 15.80908865  2818
STARLINK-36745          
1 68257U 26054AB  26086.50002315  .00051812  00000+0  26438-3 0  9995
2 68257  53.1596 223.1867 0000486 111.2808 245.8819 15.80880643  2773
